{
  "type": "FeatureCollection",
  "features": [
    {
      "type": "Feature",
      "properties": {
        "norad_id": 39227,
        "name": "ARIRANG-5 (KOMPSAT-5)",
        "group": "resource",
        "lat": 75.36972394113914,
        "lon": 146.13044168196166,
        "alt_km": 543.930822388209,
        "timestamp": "2025-12-18T17:50:14.613353+00:00",
        "meta_object_name": "ARIRANG-5 (KOMPSAT-5)",
        "meta_object_id": "2013-042A",
        "meta_epoch": "2025-12-18T06:19:16.559904",
        "meta_mean_motion": 15.04529498,
        "meta_eccentricity": 0.00034318,
        "meta_inclination": 97.6148,
        "meta_ra_of_asc_node": 176.4876,
        "meta_arg_of_pericenter": 40.8435,
        "meta_mean_anomaly": 319.3047,
        "meta_ephemeris_type": 0,
        "meta_classification_type": "U",
        "meta_norad_cat_id": 39227,
        "meta_element_set_no": 999,
        "meta_rev_at_epoch": 67665,
        "meta_bstar": 0.00015742472,
        "meta_mean_motion_dot": 2.145e-05,
        "meta_mean_motion_ddot": 0,
        "tle_line1": "1 39227U 13042A   25352.26338611  .00002145  00000+0  15742-3 0  9993",
        "tle_line2": "2 39227  97.6148 176.4876 0003431  40.8435 319.3047 15.04529498676658"
      },
      "geometry": {
        "type": "Point",
        "coordinates": [
          146.13044168196166,
          75.36972394113914
        ]
      }
    },
    {
      "type": "Feature",
      "properties": {
        "norad_id": 39418,
        "name": "SKYSAT-A",
        "group": "resource",
        "lat": -63.036070489954376,
        "lon": -152.05345050392313,
        "alt_km": 525.6536811411715,
        "timestamp": "2025-12-18T17:50:14.613363+00:00",
        "meta_object_name": "SKYSAT-A",
        "meta_object_id": "2013-066C",
        "meta_epoch": "2025-12-18T02:27:47.284704",
        "meta_mean_motion": 15.11641466,
        "meta_eccentricity": 0.00210733,
        "meta_inclination": 97.4104,
        "meta_ra_of_asc_node": 42.1485,
        "meta_arg_of_pericenter": 217.1945,
        "meta_mean_anomaly": 142.7827,
        "meta_ephemeris_type": 0,
        "meta_classification_type": "U",
        "meta_norad_cat_id": 39418,
        "meta_element_set_no": 999,
        "meta_rev_at_epoch": 66111,
        "meta_bstar": 0.00018857025,
        "meta_mean_motion_dot": 3.158e-05,
        "meta_mean_motion_ddot": 0,
        "tle_line1": "1 39418U 13066C   25352.10263061  .00003158  00000+0  18857-3 0  9995",
        "tle_line2": "2 39418  97.4104  42.1485 0021073 217.1945 142.7827 15.11641466661119"
      },
      "geometry": {
        "type": "Point",
        "coordinates": [
          -152.05345050392313,
          -63.036070489954376
        ]
      }
    },
    {
      "type": "Feature",
      "properties": {
        "norad_id": 39419,
        "name": "DUBAISAT-2",
        "group": "resource",
        "lat": -43.526561985632725,
        "lon": -9.899655090564833,
        "alt_km": 541.1026812017835,
        "timestamp": "2025-12-18T17:50:14.613373+00:00",
        "meta_object_name": "DUBAISAT-2",
        "meta_object_id": "2013-066D",
        "meta_epoch": "2025-12-18T06:53:13.902144",
        "meta_mean_motion": 15.08410534,
        "meta_eccentricity": 0.00100392,
        "meta_inclination": 97.4444,
        "meta_ra_of_asc_node": 342.5237,
        "meta_arg_of_pericenter": 301.2147,
        "meta_mean_anomaly": 58.8097,
        "meta_ephemeris_type": 0,
        "meta_classification_type": "U",
        "meta_norad_cat_id": 39419,
        "meta_element_set_no": 999,
        "meta_rev_at_epoch": 65910,
        "meta_bstar": 0.00024279975,
        "meta_mean_motion_dot": 3.719e-05,
        "meta_mean_motion_ddot": 0,
        "tle_line1": "1 39419U 13066D   25352.28696646  .00003719  00000+0  24280-3 0  9994",
        "tle_line2": "2 39419  97.4444 342.5237 0010039 301.2147  58.8097 15.08410534659106"
      },
      "geometry": {
        "type": "Point",
        "coordinates": [
          -9.899655090564833,
          -43.526561985632725
        ]
      }
    },
    {
      "type": "Feature",
      "properties": {
        "norad_id": 39574,
        "name": "GPM-CORE",
        "group": "resource",
        "lat": 8.500158162395907,
        "lon": 8.574170566235342,
        "alt_km": 432.0532457196132,
        "timestamp": "2025-12-18T17:50:14.613383+00:00",
        "meta_object_name": "GPM-CORE",
        "meta_object_id": "2014-009C",
        "meta_epoch": "2025-12-18T04:40:09.416352",
        "meta_mean_motion": 15.44547749,
        "meta_eccentricity": 0.00095055,
        "meta_inclination": 64.9723,
        "meta_ra_of_asc_node": 194.4149,
        "meta_arg_of_pericenter": 247.1367,
        "meta_mean_anomaly": 112.877,
        "meta_ephemeris_type": 0,
        "meta_classification_type": "U",
        "meta_norad_cat_id": 39574,
        "meta_element_set_no": 999,
        "meta_rev_at_epoch": 66985,
        "meta_bstar": 0.0001507642,
        "meta_mean_motion_dot": 6.798e-05,
        "meta_mean_motion_ddot": 0,
        "tle_line1": "1 39574U 14009C   25352.19455343  .00006798  00000+0  15076-3 0  9994",
        "tle_line2": "2 39574  64.9723 194.4149 0009505 247.1367 112.8770 15.44547749669852"
      },
      "geometry": {
        "type": "Point",
        "coordinates": [
          8.574170566235342,
          8.500158162395907
        ]
      }
    },
    {
      "type": "Feature",
      "properties": {
        "norad_id": 39634,
        "name": "SENTINEL-1A",
        "group": "resource",
        "lat": -37.366710495805684,
        "lon": 4.202816047968039,
        "alt_km": 702.5511989756014,
        "timestamp": "2025-12-18T17:50:14.613394+00:00",
        "meta_object_name": "SENTINEL-1A",
        "meta_object_id": "2014-016A",
        "meta_epoch": "2025-12-18T06:29:25.419840",
        "meta_mean_motion": 14.59201636,
        "meta_eccentricity": 0.00012325,
        "meta_inclination": 98.18,
        "meta_ra_of_asc_node": 357.4308,
        "meta_arg_of_pericenter": 82.3455,
        "meta_mean_anomaly": 277.7885,
        "meta_ephemeris_type": 0,
        "meta_classification_type": "U",
        "meta_norad_cat_id": 39634,
        "meta_element_set_no": 999,
        "meta_rev_at_epoch": 62363,
        "meta_bstar": 4.9298189e-05,
        "meta_mean_motion_dot": 1.87e-06,
        "meta_mean_motion_ddot": 0,
        "tle_line1": "1 39634U 14016A   25352.27043310  .00000187  00000+0  49298-4 0  9995",
        "tle_line2": "2 39634  98.1800 357.4308 0001232  82.3455 277.7885 14.59201636623639"
      },
      "geometry": {
        "type": "Point",
        "coordinates": [
          4.202816047968039,
          -37.366710495805684
        ]
      }
    },
    {
      "type": "Feature",
      "properties": {
        "norad_id": 39731,
        "name": "KAZEOSAT 1",
        "group": "resource",
        "lat": -71.10728431590795,
        "lon": 89.90784909900344,
        "alt_km": 759.7547967100936,
        "timestamp": "2025-12-18T17:50:14.613404+00:00",
        "meta_object_name": "KAZEOSAT 1",
        "meta_object_id": "2014-024A",
        "meta_epoch": "2025-12-18T06:31:07.387392",
        "meta_mean_motion": 14.42065558,
        "meta_eccentricity": 0.00011357,
        "meta_inclination": 98.3433,
        "meta_ra_of_asc_node": 64.0552,
        "meta_arg_of_pericenter": 98.0218,
        "meta_mean_anomaly": 262.11,
        "meta_ephemeris_type": 0,
        "meta_classification_type": "U",
        "meta_norad_cat_id": 39731,
        "meta_element_set_no": 999,
        "meta_rev_at_epoch": 61248,
        "meta_bstar": 5.4020519e-05,
        "meta_mean_motion_dot": 1.35e-06,
        "meta_mean_motion_ddot": 0,
        "tle_line1": "1 39731U 14024A   25352.27161328  .00000135  00000+0  54021-4 0  9995",
        "tle_line2": "2 39731  98.3433  64.0552 0001135  98.0218 262.1100 14.42065558612488"
      },
      "geometry": {
        "type": "Point",
        "coordinates": [
          89.90784909900344,
          -71.10728431590795
        ]
      }
    },
    {
      "type": "Feature",
      "properties": {
        "norad_id": 39766,
        "name": "ALOS-2",
        "group": "resource",
        "lat": -75.86349433530891,
        "lon": -126.06327531267861,
        "alt_km": 639.193994005409,
        "timestamp": "2025-12-18T17:50:14.613414+00:00",
        "meta_object_name": "ALOS-2",
        "meta_object_id": "2014-029A",
        "meta_epoch": "2025-12-18T06:56:04.573248",
        "meta_mean_motion": 14.7947494,
        "meta_eccentricity": 0.00013375,
        "meta_inclination": 97.9226,
        "meta_ra_of_asc_node": 87.0562,
        "meta_arg_of_pericenter": 98.5093,
        "meta_mean_anomaly": 261.627,
        "meta_ephemeris_type": 0,
        "meta_classification_type": "U",
        "meta_norad_cat_id": 39766,
        "meta_element_set_no": 999,
        "meta_rev_at_epoch": 62483,
        "meta_bstar": 0.00018700556,
        "meta_mean_motion_dot": 1.345e-05,
        "meta_mean_motion_ddot": 0,
        "tle_line1": "1 39766U 14029A   25352.28894182  .00001345  00000+0  18701-3 0  9998",
        "tle_line2": "2 39766  97.9226  87.0562 0001337  98.5093 261.6270 14.79474940624830"
      },
      "geometry": {
        "type": "Point",
        "coordinates": [
          -126.06327531267861,
          -75.86349433530891
        ]
      }
    }
  ]
}